%SDO
%1 36395U 10005A   10305.46302110 -.00000052  00000-0  00000+0 0  1672
%2 36395 027.9647 185.0092 0002381 326.2622 314.0752 01.00274389  2834
